STARLINK-36629          
1 67596U 26018H   26036.50002314 -.01616815  77238-3 -37939-2 0  9995
2 67596  97.2787 100.5662 0001355  83.9211 162.8059 15.97022491  2163
STARLINK-36384          
1 67597U 26018J   26036.50002314 -.01591575  75157-3 -36976-2 0  9999
2 67597  97.2785 100.5674 0001409  79.7809 169.6539 15.97201860  2225
STARLINK-36358          
1 67598U 26018K   26036.50002314 -.01607264  76652-3 -37071-2 0  9991
2 67598  97.2783 100.5680 0001288  88.0000 163.3838 15.97337002  2212
STARLINK-36582          
1 67599U 26018L   26036.50002314 -.01607351  76831-3 -36658-2 0  9998
2 67599  97.2784 100.5695 0001429  83.8324 170.4317 15.97542571  2275
STARLINK-36640          
1 67600U 26018M   26036.50002314 -.01581178  74792-3 -35402-2 0  9999
2 67600  97.2781 100.5717 0001324  78.9350 180.2490 15.97875407  2175
STARLINK-36635          
1 67601U 26018N   26036.50002314 -.01582545  74754-3 -35814-2 0  9994
2 67601  97.2782 100.5702 0001407  81.2962 175.1607 15.97680511  2172
STARLINK-36631          
1 67602U 26018P   26036.50002314 -.01553564  72537-3 -34406-2 0  9997
2 67602  97.2779 100.5727 0001356  80.6636 181.4234 15.98069548  2167
STARLINK-36626          
1 67603U 26018Q   26036.50002314 -.01547705  72441-3 -33307-2 0  9991
2 67603  97.2773 100.5757 0001273  78.8602 190.6610 15.98587696  2164
STARLINK-36605          
1 67604U 26018R   26036.50002314 -.01552170  72724-3 -33649-2 0  9997
2 67604  97.2772 100.5746 0001363  82.0483 185.4516 15.98455498  2167
STARLINK-36281          
1 67605U 26018S   26036.50002314 -.01558100  73101-3 -34106-2 0  9996
2 67605  97.2774 100.5734 0001278  94.0151 170.9705 15.98281865  2217
STARLINK-35843          
1 67606U 26018T   26036.50002314 -.01548557  72644-3 -33029-2 0  9996
2 67606  97.2770 100.5763 0001391  76.0918 195.7518 15.98748360  2229
STARLINK-36351          
1 67607U 26018U   26036.50002314 -.01534781  71554-3 -32489-2 0  9999
2 67607  97.2772 100.5775 0001222  79.2292 194.6776 15.98882590  2226
