CCSDS_OMM_VERS = 2.0
CREATION_DATE  = 
ORIGINATOR     = 

OBJECT_NAME    = STARLINK-36629
OBJECT_ID      = 2026-018H
CENTER_NAME    = EARTH
REF_FRAME      = TEME
TIME_SYSTEM    = UTC
MEAN_ELEMENT_THEORY = SGP/SGP4

EPOCH          = 2026-02-05T12:00:01.999296
MEAN_MOTION    = 15.97022491
ECCENTRICITY   = .0001355
INCLINATION    = 97.2787
RA_OF_ASC_NODE = 100.5662
ARG_OF_PERICENTER = 83.9211
MEAN_ANOMALY   = 162.8059

EPHEMERIS_TYPE = 0
CLASSIFICATION_TYPE = U
NORAD_CAT_ID   = 67596
ELEMENT_SET_NO = 999
REV_AT_EPOCH   = 216
BSTAR          = -.37939E-2
MEAN_MOTION_DOT = -.1616815E-1
MEAN_MOTION_DDOT = .77238E-3

CCSDS_OMM_VERS = 2.0
CREATION_DATE  = 
ORIGINATOR     = 

OBJECT_NAME    = STARLINK-36384
OBJECT_ID      = 2026-018J
CENTER_NAME    = EARTH
REF_FRAME      = TEME
TIME_SYSTEM    = UTC
MEAN_ELEMENT_THEORY = SGP/SGP4

EPOCH          = 2026-02-05T12:00:01.999296
MEAN_MOTION    = 15.97201860
ECCENTRICITY   = .0001409
INCLINATION    = 97.2785
RA_OF_ASC_NODE = 100.5674
ARG_OF_PERICENTER = 79.7809
MEAN_ANOMALY   = 169.6539

EPHEMERIS_TYPE = 0
CLASSIFICATION_TYPE = U
NORAD_CAT_ID   = 67597
ELEMENT_SET_NO = 999
REV_AT_EPOCH   = 222
BSTAR          = -.36976E-2
MEAN_MOTION_DOT = -.1591575E-1
MEAN_MOTION_DDOT = .75157E-3

CCSDS_OMM_VERS = 2.0
CREATION_DATE  = 
ORIGINATOR     = 

OBJECT_NAME    = STARLINK-36358
OBJECT_ID      = 2026-018K
CENTER_NAME    = EARTH
REF_FRAME      = TEME
TIME_SYSTEM    = UTC
MEAN_ELEMENT_THEORY = SGP/SGP4

EPOCH          = 2026-02-05T12:00:01.999296
MEAN_MOTION    = 15.97337002
ECCENTRICITY   = .0001288
INCLINATION    = 97.2783
RA_OF_ASC_NODE = 100.5680
ARG_OF_PERICENTER = 88.0000
MEAN_ANOMALY   = 163.3838

EPHEMERIS_TYPE = 0
CLASSIFICATION_TYPE = U
NORAD_CAT_ID   = 67598
ELEMENT_SET_NO = 999
REV_AT_EPOCH   = 221
BSTAR          = -.37071E-2
MEAN_MOTION_DOT = -.1607264E-1
MEAN_MOTION_DDOT = .76652E-3

CCSDS_OMM_VERS = 2.0
CREATION_DATE  = 
ORIGINATOR     = 

OBJECT_NAME    = STARLINK-36582
OBJECT_ID      = 2026-018L
CENTER_NAME    = EARTH
REF_FRAME      = TEME
TIME_SYSTEM    = UTC
MEAN_ELEMENT_THEORY = SGP/SGP4

EPOCH          = 2026-02-05T12:00:01.999296
MEAN_MOTION    = 15.97542571
ECCENTRICITY   = .0001429
INCLINATION    = 97.2784
RA_OF_ASC_NODE = 100.5695
ARG_OF_PERICENTER = 83.8324
MEAN_ANOMALY   = 170.4317

EPHEMERIS_TYPE = 0
CLASSIFICATION_TYPE = U
NORAD_CAT_ID   = 67599
ELEMENT_SET_NO = 999
REV_AT_EPOCH   = 227
BSTAR          = -.36658E-2
MEAN_MOTION_DOT = -.1607351E-1
MEAN_MOTION_DDOT = .76831E-3

CCSDS_OMM_VERS = 2.0
CREATION_DATE  = 
ORIGINATOR     = 

OBJECT_NAME    = STARLINK-36640
OBJECT_ID      = 2026-018M
CENTER_NAME    = EARTH
REF_FRAME      = TEME
TIME_SYSTEM    = UTC
MEAN_ELEMENT_THEORY = SGP/SGP4

EPOCH          = 2026-02-05T12:00:01.999296
MEAN_MOTION    = 15.97875407
ECCENTRICITY   = .0001324
INCLINATION    = 97.2781
RA_OF_ASC_NODE = 100.5717
ARG_OF_PERICENTER = 78.9350
MEAN_ANOMALY   = 180.2490

EPHEMERIS_TYPE = 0
CLASSIFICATION_TYPE = U
NORAD_CAT_ID   = 67600
ELEMENT_SET_NO = 999
REV_AT_EPOCH   = 217
BSTAR          = -.35402E-2
MEAN_MOTION_DOT = -.1581178E-1
MEAN_MOTION_DDOT = .74792E-3

CCSDS_OMM_VERS = 2.0
CREATION_DATE  = 
ORIGINATOR     = 

OBJECT_NAME    = STARLINK-36635
OBJECT_ID      = 2026-018N
CENTER_NAME    = EARTH
REF_FRAME      = TEME
TIME_SYSTEM    = UTC
MEAN_ELEMENT_THEORY = SGP/SGP4

EPOCH          = 2026-02-05T12:00:01.999296
MEAN_MOTION    = 15.97680511
ECCENTRICITY   = .0001407
INCLINATION    = 97.2782
RA_OF_ASC_NODE = 100.5702
ARG_OF_PERICENTER = 81.2962
MEAN_ANOMALY   = 175.1607

EPHEMERIS_TYPE = 0
CLASSIFICATION_TYPE = U
NORAD_CAT_ID   = 67601
ELEMENT_SET_NO = 999
REV_AT_EPOCH   = 217
BSTAR          = -.35814E-2
MEAN_MOTION_DOT = -.1582545E-1
MEAN_MOTION_DDOT = .74754E-3

CCSDS_OMM_VERS = 2.0
CREATION_DATE  = 
ORIGINATOR     = 

OBJECT_NAME    = STARLINK-36631
OBJECT_ID      = 2026-018P
CENTER_NAME    = EARTH
REF_FRAME      = TEME
TIME_SYSTEM    = UTC
MEAN_ELEMENT_THEORY = SGP/SGP4

EPOCH          = 2026-02-05T12:00:01.999296
MEAN_MOTION    = 15.98069548
ECCENTRICITY   = .0001356
INCLINATION    = 97.2779
RA_OF_ASC_NODE = 100.5727
ARG_OF_PERICENTER = 80.6636
MEAN_ANOMALY   = 181.4234

EPHEMERIS_TYPE = 0
CLASSIFICATION_TYPE = U
NORAD_CAT_ID   = 67602
ELEMENT_SET_NO = 999
REV_AT_EPOCH   = 216
BSTAR          = -.34406E-2
MEAN_MOTION_DOT = -.1553564E-1
MEAN_MOTION_DDOT = .72537E-3

CCSDS_OMM_VERS = 2.0
CREATION_DATE  = 
ORIGINATOR     = 

OBJECT_NAME    = STARLINK-36626
OBJECT_ID      = 2026-018Q
CENTER_NAME    = EARTH
REF_FRAME      = TEME
TIME_SYSTEM    = UTC
MEAN_ELEMENT_THEORY = SGP/SGP4

EPOCH          = 2026-02-05T12:00:01.999296
MEAN_MOTION    = 15.98587696
ECCENTRICITY   = .0001273
INCLINATION    = 97.2773
RA_OF_ASC_NODE = 100.5757
ARG_OF_PERICENTER = 78.8602
MEAN_ANOMALY   = 190.6610

EPHEMERIS_TYPE = 0
CLASSIFICATION_TYPE = U
NORAD_CAT_ID   = 67603
ELEMENT_SET_NO = 999
REV_AT_EPOCH   = 216
BSTAR          = -.33307E-2
MEAN_MOTION_DOT = -.1547705E-1
MEAN_MOTION_DDOT = .72441E-3

CCSDS_OMM_VERS = 2.0
CREATION_DATE  = 
ORIGINATOR     = 

OBJECT_NAME    = STARLINK-36605
OBJECT_ID      = 2026-018R
CENTER_NAME    = EARTH
REF_FRAME      = TEME
TIME_SYSTEM    = UTC
MEAN_ELEMENT_THEORY = SGP/SGP4

EPOCH          = 2026-02-05T12:00:01.999296
MEAN_MOTION    = 15.98455498
ECCENTRICITY   = .0001363
INCLINATION    = 97.2772
RA_OF_ASC_NODE = 100.5746
ARG_OF_PERICENTER = 82.0483
MEAN_ANOMALY   = 185.4516

EPHEMERIS_TYPE = 0
CLASSIFICATION_TYPE = U
NORAD_CAT_ID   = 67604
ELEMENT_SET_NO = 999
REV_AT_EPOCH   = 216
BSTAR          = -.33649E-2
MEAN_MOTION_DOT = -.155217E-1
MEAN_MOTION_DDOT = .72724E-3

CCSDS_OMM_VERS = 2.0
CREATION_DATE  = 
ORIGINATOR     = 

OBJECT_NAME    = STARLINK-36281
OBJECT_ID      = 2026-018S
CENTER_NAME    = EARTH
REF_FRAME      = TEME
TIME_SYSTEM    = UTC
MEAN_ELEMENT_THEORY = SGP/SGP4

EPOCH          = 2026-02-05T12:00:01.999296
MEAN_MOTION    = 15.98281865
ECCENTRICITY   = .0001278
INCLINATION    = 97.2774
RA_OF_ASC_NODE = 100.5734
ARG_OF_PERICENTER = 94.0151
MEAN_ANOMALY   = 170.9705

EPHEMERIS_TYPE = 0
CLASSIFICATION_TYPE = U
NORAD_CAT_ID   = 67605
ELEMENT_SET_NO = 999
REV_AT_EPOCH   = 221
BSTAR          = -.34106E-2
MEAN_MOTION_DOT = -.15581E-1
MEAN_MOTION_DDOT = .73101E-3

CCSDS_OMM_VERS = 2.0
CREATION_DATE  = 
ORIGINATOR     = 

OBJECT_NAME    = STARLINK-35843
OBJECT_ID      = 2026-018T
CENTER_NAME    = EARTH
REF_FRAME      = TEME
TIME_SYSTEM    = UTC
MEAN_ELEMENT_THEORY = SGP/SGP4

EPOCH          = 2026-02-05T12:00:01.999296
MEAN_MOTION    = 15.98748360
ECCENTRICITY   = .0001391
INCLINATION    = 97.2770
RA_OF_ASC_NODE = 100.5763
ARG_OF_PERICENTER = 76.0918
MEAN_ANOMALY   = 195.7518

EPHEMERIS_TYPE = 0
CLASSIFICATION_TYPE = U
NORAD_CAT_ID   = 67606
ELEMENT_SET_NO = 999
REV_AT_EPOCH   = 222
BSTAR          = -.33029E-2
MEAN_MOTION_DOT = -.1548557E-1
MEAN_MOTION_DDOT = .72644E-3

CCSDS_OMM_VERS = 2.0
CREATION_DATE  = 
ORIGINATOR     = 

OBJECT_NAME    = STARLINK-36351
OBJECT_ID      = 2026-018U
CENTER_NAME    = EARTH
REF_FRAME      = TEME
TIME_SYSTEM    = UTC
MEAN_ELEMENT_THEORY = SGP/SGP4

EPOCH          = 2026-02-05T12:00:01.999296
MEAN_MOTION    = 15.98882590
ECCENTRICITY   = .0001222
INCLINATION    = 97.2772
RA_OF_ASC_NODE = 100.5775
ARG_OF_PERICENTER = 79.2292
MEAN_ANOMALY   = 194.6776

EPHEMERIS_TYPE = 0
CLASSIFICATION_TYPE = U
NORAD_CAT_ID   = 67607
ELEMENT_SET_NO = 999
REV_AT_EPOCH   = 222
BSTAR          = -.32489E-2
MEAN_MOTION_DOT = -.1534781E-1
MEAN_MOTION_DDOT = .71554E-3

